STARLINK-35310          
1 66183U 25243G   25315.25002315  .00051726  00000+0  35618-3 0  9990
2 66183  53.1578  78.4626 0001199 107.1553  24.0077 15.74132120  3582
STARLINK-35317          
1 66184U 25243H   25315.25002315  .00008715  00000+0  63866-4 0  9998
2 66184  53.1574  78.5023 0001145  91.6776  20.3160 15.74142403  3527
STARLINK-35377          
1 66185U 25243J   25315.25002315 -.00033697  00000+0 -22692-3 0  9999
2 66185  53.1574  78.5103 0001095  79.0155  29.1214 15.74166700  3581
STARLINK-35365          
1 66186U 25243K   25315.25002315 -.00059494  00000+0 -40500-3 0  9991
2 66186  53.1572  78.5187 0001361  88.3872  15.9267 15.74176125  3524
STARLINK-35350          
1 66187U 25243L   25315.25002315  .00018656  00000+0  13131-3 0  9995
2 66187  53.1574  78.5148 0000904  97.1259   9.0338 15.74203215  3527
STARLINK-35041          
1 66188U 25243M   25315.25002315 -.00033606  00000+0 -22631-3 0  9995
2 66188  53.1572  78.4990 0001250  92.3942  21.5111 15.74164628  3578
STARLINK-34694          
1 66189U 25243N   25315.25002315  .00010525  00000+0  76223-4 0  9996
2 66189  53.1574  78.4908 0001036 106.4456  11.2974 15.74140152  3523
STARLINK-34863          
1 66190U 25243P   25315.25002315  .00024795  00000+0  17348-3 0  9994
2 66190  53.1576  78.5060 0001144  99.9007  10.1745 15.74137221  3522
STARLINK-35061          
1 66191U 25243Q   25315.25002315  .00026651  00000+0  18604-3 0  9994
2 66191  53.1577  78.4668 0001071  88.9986  40.2408 15.74144666  3576
STARLINK-34937          
1 66192U 25243R   25315.25002315  .00081539  00000+0  55731-3 0  9993
2 66192  53.1577  78.4707 0001250  76.0282  51.2980 15.74120188  3319
STARLINK-35197          
1 66193U 25243S   25315.25002315  .00091005  00000+0  62119-3 0  9991
2 66193  53.1578  78.4739 0001305  58.8235  66.5959 15.74105772  3523
STARLINK-35374          
1 66194U 25243T   25315.25002315  .00030399  00000+0  21163-3 0  9995
2 66194  53.1576  78.4781 0001040  98.5087  24.9860 15.74131389  3523
STARLINK-34813          
1 66195U 25243U   25315.25002315 -.00023300  00000+0 -15547-3 0  9991
2 66195  53.1571  78.4827 0001287  90.7771  30.7963 15.74153551  3521
STARLINK-35409          
1 66196U 25243V   25315.25002315  .00070248  00000+0  48130-3 0  9997
2 66196  53.1573  78.4870 0001074  93.3400  26.3222 15.74123832  3522
STARLINK-35518          
1 66197U 25243X   25315.25002315  .00008707  00000+0  63792-4 0  9991
2 66197  53.1574  78.4946 0001050  94.9352  20.8879 15.74149907  3523
STARLINK-35259          
1 66198U 25243W   25315.25002315  .00107098  00000+0  72878-3 0  9999
2 66198  53.1582  78.4137 0000971  90.6382  63.5239 15.74109378  3524
STARLINK-35509          
1 66199U 25243Y   25315.25002315  .00081638  00000+0  55801-3 0  9998
2 66199  53.1580  78.4101 0001310  88.8219  67.2623 15.74118342  3529
STARLINK-35551          
1 66200U 25243Z   25315.25002315  .00045484  00000+0  31395-3 0  9992
2 66200  53.1580  78.4180 0000870 108.0118  44.2416 15.74131999  3520
STARLINK-35543          
1 66201U 25243AA  25315.25002315  .00100239  00000+0  68298-3 0  9995
2 66201  53.1581  78.4210 0001145  98.6861  51.6493 15.74108068  3585
STARLINK-35534          
1 66202U 25243AB  25315.25002315  .00046947  00000+0  32378-3 0  9991
2 66202  53.1580  78.4257 0001241  78.9562  69.4534 15.74137441  3526
STARLINK-35548          
1 66203U 25243AC  25315.25002315  .00051463  00000+0  35449-3 0  9993
2 66203  53.1580  78.4301 0001052  93.0689  53.4327 15.74126639  3581
STARLINK-35490          
1 66204U 25243AD  25315.25002315  .00027308  00000+0  19052-3 0  9997
2 66204  53.1579  78.4374 0001064  74.4635  68.1973 15.74143310  3470
STARLINK-35748          
1 66206U 25244A   25315.25002315 -.01880068  00000+0 -16041-1 0  9996
2 66206  53.1585  65.5174 0001053  86.0347 109.1887 15.72234260  3205
STARLINK-35747          
1 66207U 25244B   25315.25002315 -.00048701  00000+0 -33011-3 0  9994
2 66207  53.1576  65.5095 0000958  97.1316 101.6267 15.74191677  3205
STARLINK-35751          
1 66208U 25244C   25315.25002315 -.01885672  00000+0 -16093-1 0  9991
2 66208  53.1584  65.5095 0001217  85.6926 113.3643 15.72237964  3311
STARLINK-35750          
1 66209U 25244D   25315.25002315 -.01876525  00000+0 -16009-1 0  9996
2 66209  53.1583  65.5007 0001075  93.0490 109.8446 15.72231136  3287
STARLINK-35740          
1 66210U 25244E   25315.25002315 -.01883349  00000+0 -16071-1 0  9999
2 66210  53.1585  65.5048 0001120  93.4846 107.4892 15.72236877  3158
STARLINK-35723          
1 66211U 25244F   25315.25002315 -.01887582  00000+0 -16109-1 0  9995
2 66211  53.1587  65.4965 0001202  86.8957 117.9068 15.72241745  3205
STARLINK-35710          
1 66212U 25244G   25315.25002315 -.01728549  00000+0 -14682-1 0  9997
2 66212  53.1585  65.4880 0000585  59.8354 148.9621 15.72057905  3284
STARLINK-34204          
1 66213U 25244H   25315.25002315 -.01872782  00000+0 -15972-1 0  9990
2 66213  53.1587  65.4925 0001261  89.9476 116.7811 15.72228106  3476
STARLINK-35714          
1 66214U 25244J   25315.25002315 -.01874296  00000+0 -15989-1 0  9991
2 66214  53.1585  65.4720 0001058  79.5994 136.7128 15.72228490  3156
STARLINK-35712          
1 66215U 25244K   25315.25002315 -.01867253  00000+0 -15923-1 0  9995
2 66215  53.1582  65.4645 0000929  85.5320 134.6154 15.72224809  3152
STARLINK-35709          
1 66216U 25244L   25315.25002315 -.01879958  00000+0 -16041-1 0  9993
2 66216  53.1585  65.4845 0000956  77.2428 133.3156 15.72234536  3151
STARLINK-35700          
1 66217U 25244M   25315.25002315 -.01882176  00000+0 -16060-1 0  9991
2 66217  53.1585  65.4806 0001151  91.6703 120.8047 15.72236433  3151
STARLINK-35722          
1 66218U 25244N   25315.25002315 -.01872399  00000+0 -15968-1 0  9994
2 66218  53.1584  65.4766 0001362  89.2578 125.1378 15.72227823  3151
STARLINK-35737          
1 66219U 25244P   25315.25002315 -.01878315  00000+0 -16024-1 0  9993
2 66219  53.1585  65.4688 0001132  97.0824 121.1437 15.72234105  3313
STARLINK-35677          
1 66220U 25244Q   25315.25002315 -.01871537  00000+0 -15962-1 0  9994
2 66220  53.1584  65.4609 0001059  98.6516 123.4119 15.72227909  3158
STARLINK-35704          
1 66221U 25244R   25315.25002315 -.01871052  00000+0 -15956-1 0  9990
2 66221  53.1585  65.4565 0001281 102.5069 121.4744 15.72227251  3158
STARLINK-35666          
1 66222U 25244S   25315.25002315 -.01867133  00000+0 -15918-1 0  9994
2 66222  53.1584  65.4486 0001082  99.2037 128.6044 15.72228693  3261
STARLINK-35664          
1 66223U 25244T   25315.25002315 -.01869313  00000+0 -15942-1 0  9994
2 66223  53.1586  65.4530 0001237  88.1447 137.7583 15.72222298  3262
STARLINK-35733          
1 66224U 25244U   25315.25002315 -.01868847  00000+0 -15939-1 0  9992
2 66224  53.1585  65.4406 0001236  90.3886 141.2677 15.72220572  3150
STARLINK-35734          
1 66225U 25244V   25315.25002315 -.01870369  00000+0 -15948-1 0  9995
2 66225  53.1586  65.4441 0001338  88.1650 141.5636 15.72227544  3152
STARLINK-34466          
1 66226U 25244W   25315.25002315 -.01867463  00000+0 -15923-1 0  9990
2 66226  53.1585  65.4357 0001291 100.0841 133.4836 15.72223719  3479
STARLINK-34882          
1 66227U 25244X   25315.25002315 -.01869861  00000+0 -15947-1 0  9991
2 66227  53.1586  65.4313 0001122  92.5739 142.9121 15.72224207  3472
STARLINK-35731          
1 66228U 25244Y   25315.25002315 -.01871746  00000+0 -15962-1 0  9994
2 66228  53.1587  65.4273 0001106  75.5160 161.8751 15.72230655  3158
STARLINK-35758          
1 66229U 25244Z   25315.25002315 -.01860669  00000+0 -15860-1 0  9994
2 66229  53.1585  65.4238 0001176  87.6395 151.6793 15.72218842  3156
STARLINK-35736          
1 66230U 25244AA  25315.25002315 -.01865113  00000+0 -15900-1 0  9990
2 66230  53.1588  65.4198 0001272  98.5779 142.6555 15.72223336  3150
STARLINK-35735          
1 66231U 25244AB  25315.25002315 -.01860446  00000+0 -15858-1 0  9997
2 66231  53.1586  65.4160 0001193  88.2277 154.9238 15.72219169  3152
STARLINK-35753          
1 66232U 25244AC  25315.25002315 -.01866670  00000+0 -15918-1 0  9990
2 66232  53.1586  65.4128 0001222  89.3675 155.7058 15.72219674  3154
STARLINK-35626          
1 66233U 25244AD  25315.25002315 -.01864538  00000+0 -15899-1 0  9990
2 66233  53.1586  65.4086 0001127  90.9248 156.0665 15.72218058  3317
STARLINK-35537          
1 66234U 25245A   25315.25002315 -.01176749  00000+0 -68536-2 0  9999
2 66234  53.1529 120.1236 0000752  67.1278  76.8255 15.80350728  3047
STARLINK-35541          
1 66235U 25245B   25315.25002315 -.01182001  00000+0 -68918-2 0  9992
2 66235  53.1525 120.1187 0000706  63.9114  82.2606 15.80339051  2991
STARLINK-35454          
1 66236U 25245C   25315.25002315 -.01187777  00000+0 -69344-2 0  9992
2 66236  53.1525 120.1137 0000826  66.4521  81.9670 15.80323014  2887
STARLINK-35557          
1 66237U 25245D   25315.25002315 -.01216137  00000+0 -71320-2 0  9993
2 66237  53.1526 120.1083 0000809  67.9284  83.0574 15.80290316  3045
STARLINK-35556          
1 66238U 25245E   25315.25002315 -.01238918  00000+0 -72888-2 0  9995
2 66238  53.1525 120.1035 0001003  66.2215  87.0773 15.80271327  3041
STARLINK-35554          
1 66239U 25245F   25315.25002315 -.01274483  00000+0 -75432-2 0  9991
2 66239  53.1525 120.0980 0000891  69.1122  86.8517 15.80224261  2882
STARLINK-35546          
1 66240U 25245G   25315.25002315 -.01293733  00000+0 -76856-2 0  9993
2 66240  53.1523 120.0923 0000929  73.2520  85.1243 15.80188254  3047
STARLINK-35497          
1 66241U 25245H   25315.25002315 -.01304793  00000+0 -77753-2 0  9990
2 66241  53.1524 120.0875 0001018  67.9571  92.8205 15.80146351  2999
STARLINK-35480          
1 66242U 25245J   25315.25002315 -.01347807  00000+0 -79617-2 0  9995
2 66242  53.1526 120.0727 0001100  68.8172  99.4236 15.79971620  3044
